[{"OBJECT_NAME":"COSMOS 2251 DEB","OBJECT_ID":"1993-036AUU","EPOCH":"2026-03-05T06:52:33.034944","MEAN_MOTION":15.00530799,"ECCENTRICITY":0.0084949,"INCLINATION":74.0317,"RA_OF_ASC_NODE":43.0245,"ARG_OF_PERICENTER":102.0037,"MEAN_ANOMALY":259.0688,"EPHEMERIS_TYPE":0,"CLASSIFICATION_TYPE":"U","NORAD_CAT_ID":35905,"ELEMENT_SET_NO":999,"REV_AT_EPOCH":89820,"BSTAR":0.00077707,"MEAN_MOTION_DOT":0.00010555,"MEAN_MOTION_DDOT":0},{"OBJECT_NAME":"COSMOS 2251 DEB","OBJECT_ID":"1993-036AUZ","EPOCH":"2026-03-06T14:16:44.359968","MEAN_MOTION":14.34203114,"ECCENTRICITY":0.00231472,"INCLINATION":74.0332,"RA_OF_ASC_NODE":158.5499,"ARG_OF_PERICENTER":224.192,"MEAN_ANOMALY":135.7384,"EPHEMERIS_TYPE":0,"CLASSIFICATION_TYPE":"U","NORAD_CAT_ID":35959,"ELEMENT_SET_NO":999,"REV_AT_EPOCH":86130,"BSTAR":0.0001535165,"MEAN_MOTION_DOT":4.05e-6,"MEAN_MOTION_DDOT":0},{"OBJECT_NAME":"COSMOS 2251 DEB","OBJECT_ID":"1993-036AVB","EPOCH":"2026-03-01T16:32:46.210272","MEAN_MOTION":14.05894038,"ECCENTRICITY":0.01905052,"INCLINATION":73.9258,"RA_OF_ASC_NODE":65.263,"ARG_OF_PERICENTER":340.3294,"MEAN_ANOMALY":19.0559,"EPHEMERIS_TYPE":0,"CLASSIFICATION_TYPE":"U","NORAD_CAT_ID":35961,"ELEMENT_SET_NO":999,"REV_AT_EPOCH":63791,"BSTAR":0.0021300088,"MEAN_MOTION_DOT":4.081e-5,"MEAN_MOTION_DDOT":0},{"OBJECT_NAME":"COSMOS 2251 DEB","OBJECT_ID":"1993-036AVV","EPOCH":"2026-03-01T01:11:56.999328","MEAN_MOTION":14.75697117,"ECCENTRICITY":0.00593262,"INCLINATION":74.0083,"RA_OF_ASC_NODE":85.0523,"ARG_OF_PERICENTER":201.7003,"MEAN_ANOMALY":189.0511,"EPHEMERIS_TYPE":0,"CLASSIFICATION_TYPE":"U","NORAD_CAT_ID":35979,"ELEMENT_SET_NO":999,"REV_AT_EPOCH":89788,"BSTAR":0.00067098649,"MEAN_MOTION_DOT":4.689e-5,"MEAN_MOTION_DDOT":0},{"OBJECT_NAME":"COSMOS 2251 DEB","OBJECT_ID":"1993-036AVW","EPOCH":"2026-03-05T00:50:44.824128","MEAN_MOTION":14.60536492,"ECCENTRICITY":0.00511175,"INCLINATION":73.9135,"RA_OF_ASC_NODE":324.4577,"ARG_OF_PERICENTER":81.2804,"MEAN_ANOMALY":279.4146,"EPHEMERIS_TYPE":0,"CLASSIFICATION_TYPE":"U","NORAD_CAT_ID":35980,"ELEMENT_SET_NO":999,"REV_AT_EPOCH":62687,"BSTAR":0.0014993665,"MEAN_MOTION_DOT":7.392e-5,"MEAN_MOTION_DDOT":0},{"OBJECT_NAME":"COSMOS 2251 DEB","OBJECT_ID":"1993-036AVY","EPOCH":"2026-03-06T07:27:07.364160","MEAN_MOTION":14.63365454,"ECCENTRICITY":0.00657137,"INCLINATION":74.0585,"RA_OF_ASC_NODE":186.8714,"ARG_OF_PERICENTER":233.7807,"MEAN_ANOMALY":125.7275,"EPHEMERIS_TYPE":0,"CLASSIFICATION_TYPE":"U","NORAD_CAT_ID":35982,"ELEMENT_SET_NO":999,"REV_AT_EPOCH":87388,"BSTAR":0.00082799154,"MEAN_MOTION_DOT":4.385e-5,"MEAN_MOTION_DDOT":0},{"OBJECT_NAME":"COSMOS 2251 DEB","OBJECT_ID":"1993-036AWD","EPOCH":"2026-03-06T06:28:06.528000","MEAN_MOTION":14.43733721,"ECCENTRICITY":0.00501189,"INCLINATION":74,"RA_OF_ASC_NODE":171.0818,"ARG_OF_PERICENTER":277.652,"MEAN_ANOMALY":81.8946,"EPHEMERIS_TYPE":0,"CLASSIFICATION_TYPE":"U","NORAD_CAT_ID":35987,"ELEMENT_SET_NO":999,"REV_AT_EPOCH":62270,"BSTAR":0.0012338356,"MEAN_MOTION_DOT":4.233e-5,"MEAN_MOTION_DDOT":0},{"OBJECT_NAME":"COSMOS 2251 DEB","OBJECT_ID":"1993-036AWF","EPOCH":"2026-03-02T12:26:52.305216","MEAN_MOTION":14.37210901,"ECCENTRICITY":0.00227968,"INCLINATION":74.0375,"RA_OF_ASC_NODE":137.1171,"ARG_OF_PERICENTER":206.1701,"MEAN_ANOMALY":153.8303,"EPHEMERIS_TYPE":0,"CLASSIFICATION_TYPE":"U","NORAD_CAT_ID":35989,"ELEMENT_SET_NO":999,"REV_AT_EPOCH":88325,"BSTAR":0.00020336343,"MEAN_MOTION_DOT":5.81e-6,"MEAN_MOTION_DDOT":0},{"OBJECT_NAME":"COSMOS 2251 DEB","OBJECT_ID":"1993-036AWK","EPOCH":"2026-02-23T01:17:53.375136","MEAN_MOTION":14.659565,"ECCENTRICITY":0.00301741,"INCLINATION":74.0143,"RA_OF_ASC_NODE":193.375,"ARG_OF_PERICENTER":358.7265,"MEAN_ANOMALY":1.3821,"EPHEMERIS_TYPE":0,"CLASSIFICATION_TYPE":"U","NORAD_CAT_ID":35993,"ELEMENT_SET_NO":999,"REV_AT_EPOCH":61502,"BSTAR":0.0008188738,"MEAN_MOTION_DOT":4.484e-5,"MEAN_MOTION_DDOT":0},{"OBJECT_NAME":"COSMOS 2251 DEB","OBJECT_ID":"1993-036AWN","EPOCH":"2026-03-04T23:09:47.731392","MEAN_MOTION":15.11153812,"ECCENTRICITY":0.0084237,"INCLINATION":74.0112,"RA_OF_ASC_NODE":293.413,"ARG_OF_PERICENTER":0.8697,"MEAN_ANOMALY":359.2625,"EPHEMERIS_TYPE":0,"CLASSIFICATION_TYPE":"U","NORAD_CAT_ID":35996,"ELEMENT_SET_NO":999,"REV_AT_EPOCH":73567,"BSTAR":0.00062627639,"MEAN_MOTION_DOT":0.00011414,"MEAN_MOTION_DDOT":0},{"OBJECT_NAME":"COSMOS 2251 DEB","OBJECT_ID":"1993-036AWP","EPOCH":"2026-03-06T14:35:25.325664","MEAN_MOTION":14.51874084,"ECCENTRICITY":0.00123725,"INCLINATION":74.0451,"RA_OF_ASC_NODE":29.4714,"ARG_OF_PERICENTER":87.1603,"MEAN_ANOMALY":273.0974,"EPHEMERIS_TYPE":0,"CLASSIFICATION_TYPE":"U","NORAD_CAT_ID":35997,"ELEMENT_SET_NO":999,"REV_AT_EPOCH":72101,"BSTAR":0.0010621558,"MEAN_MOTION_DOT":4.259e-5,"MEAN_MOTION_DDOT":0},{"OBJECT_NAME":"COSMOS 2251 DEB","OBJECT_ID":"1993-036AWS","EPOCH":"2026-02-28T07:31:38.439840","MEAN_MOTION":14.94728509,"ECCENTRICITY":0.00272918,"INCLINATION":73.9908,"RA_OF_ASC_NODE":290.6282,"ARG_OF_PERICENTER":25.1174,"MEAN_ANOMALY":335.133,"EPHEMERIS_TYPE":0,"CLASSIFICATION_TYPE":"U","NORAD_CAT_ID":36000,"ELEMENT_SET_NO":999,"REV_AT_EPOCH":61327,"BSTAR":0.0022038776,"MEAN_MOTION_DOT":0.00024159,"MEAN_MOTION_DDOT":0},{"OBJECT_NAME":"COSMOS 2251 DEB","OBJECT_ID":"1993-036AWX","EPOCH":"2026-03-07T01:13:44.334912","MEAN_MOTION":14.4748635,"ECCENTRICITY":0.0060056,"INCLINATION":74.026,"RA_OF_ASC_NODE":296.2426,"ARG_OF_PERICENTER":51.5689,"MEAN_ANOMALY":309.0839,"EPHEMERIS_TYPE":0,"CLASSIFICATION_TYPE":"U","NORAD_CAT_ID":36005,"ELEMENT_SET_NO":999,"REV_AT_EPOCH":88804,"BSTAR":0.00016533,"MEAN_MOTION_DOT":5.93e-6,"MEAN_MOTION_DDOT":0},{"OBJECT_NAME":"COSMOS 2251 DEB","OBJECT_ID":"1993-036AXG","EPOCH":"2026-03-06T20:08:56.828832","MEAN_MOTION":14.72361007,"ECCENTRICITY":0.0046934,"INCLINATION":73.7605,"RA_OF_ASC_NODE":253.0153,"ARG_OF_PERICENTER":253.1039,"MEAN_ANOMALY":106.4983,"EPHEMERIS_TYPE":0,"CLASSIFICATION_TYPE":"U","NORAD_CAT_ID":36045,"ELEMENT_SET_NO":999,"REV_AT_EPOCH":9625,"BSTAR":0.002546,"MEAN_MOTION_DOT":0.00016402,"MEAN_MOTION_DDOT":0},{"OBJECT_NAME":"COSMOS 2251 DEB","OBJECT_ID":"1993-036AXH","EPOCH":"2026-02-23T23:42:49.311072","MEAN_MOTION":14.65767134,"ECCENTRICITY":0.00585152,"INCLINATION":74.0112,"RA_OF_ASC_NODE":135.3155,"ARG_OF_PERICENTER":264.2313,"MEAN_ANOMALY":276.4308,"EPHEMERIS_TYPE":0,"CLASSIFICATION_TYPE":"U","NORAD_CAT_ID":36046,"ELEMENT_SET_NO":999,"REV_AT_EPOCH":65076,"BSTAR":0.00043696795,"MEAN_MOTION_DOT":2.41e-5,"MEAN_MOTION_DDOT":0},{"OBJECT_NAME":"COSMOS 2251 DEB","OBJECT_ID":"1993-036AXJ","EPOCH":"2026-03-06T14:40:20.474976","MEAN_MOTION":15.02231837,"ECCENTRICITY":0.00053046,"INCLINATION":74.0326,"RA_OF_ASC_NODE":163.9341,"ARG_OF_PERICENTER":249.4243,"MEAN_ANOMALY":110.6376,"EPHEMERIS_TYPE":0,"CLASSIFICATION_TYPE":"U","NORAD_CAT_ID":36047,"ELEMENT_SET_NO":999,"REV_AT_EPOCH":67196,"BSTAR":0.0038817328,"MEAN_MOTION_DOT":0.0005155,"MEAN_MOTION_DDOT":0}]
